[{"OBJECT_NAME":"YUNHAI-3 02","OBJECT_ID":"2024-058A","EPOCH":"2026-03-10T00:11:17.100384","MEAN_MOTION":14.13462602,"ECCENTRICITY":8.134e-5,"INCLINATION":98.8243,"RA_OF_ASC_NODE":78.2315,"ARG_OF_PERICENTER":102.5423,"MEAN_ANOMALY":257.5841,"EPHEMERIS_TYPE":0,"CLASSIFICATION_TYPE":"U","NORAD_CAT_ID":59343,"ELEMENT_SET_NO":999,"REV_AT_EPOCH":10073,"BSTAR":5.3421416e-5,"MEAN_MOTION_DOT":5.7e-7,"MEAN_MOTION_DDOT":0},{"OBJECT_NAME":"FENGYUN 1C DEB","OBJECT_ID":"1999-025HR","EPOCH":"2026-03-09T22:38:35.538432","MEAN_MOTION":13.85178797,"ECCENTRICITY":0.01387127,"INCLINATION":98.4908,"RA_OF_ASC_NODE":220.1282,"ARG_OF_PERICENTER":104.721,"MEAN_ANOMALY":18.6936,"EPHEMERIS_TYPE":0,"CLASSIFICATION_TYPE":"U","NORAD_CAT_ID":29919,"ELEMENT_SET_NO":999,"REV_AT_EPOCH":96742,"BSTAR":0.00023877448,"MEAN_MOTION_DOT":2.55e-6,"MEAN_MOTION_DDOT":0}]
